[{"OBJECT_NAME":"ASTROCAST-0403","OBJECT_ID":"2023-001DG","EPOCH":"2026-03-09T19:45:35.762976","MEAN_MOTION":15.28004949,"ECCENTRICITY":0.00047706,"INCLINATION":97.5604,"RA_OF_ASC_NODE":161.3228,"ARG_OF_PERICENTER":338.0704,"MEAN_ANOMALY":22.033,"EPHEMERIS_TYPE":0,"CLASSIFICATION_TYPE":"U","NORAD_CAT_ID":55111,"ELEMENT_SET_NO":999,"REV_AT_EPOCH":12937,"BSTAR":0.0005131719,"MEAN_MOTION_DOT":0.00013959,"MEAN_MOTION_DDOT":0},{"OBJECT_NAME":"STARLINK-30105","OBJECT_ID":"2023-105D","EPOCH":"2026-03-09T06:50:46.262688","MEAN_MOTION":15.275786,"ECCENTRICITY":0.00010775,"INCLINATION":43.0064,"RA_OF_ASC_NODE":33.1157,"ARG_OF_PERICENTER":264.562,"MEAN_ANOMALY":95.5109,"EPHEMERIS_TYPE":0,"CLASSIFICATION_TYPE":"U","NORAD_CAT_ID":57433,"ELEMENT_SET_NO":999,"REV_AT_EPOCH":14826,"BSTAR":1.7084428e-5,"MEAN_MOTION_DOT":2.08e-6,"MEAN_MOTION_DDOT":0}]
